[{"OBJECT_NAME":"METOP-C","OBJECT_ID":"2018-087A","EPOCH":"2026-03-05T21:06:38.595168","MEAN_MOTION":14.21495415,"ECCENTRICITY":0.00021825,"INCLINATION":98.6773,"RA_OF_ASC_NODE":126.3171,"ARG_OF_PERICENTER":105.271,"MEAN_ANOMALY":254.8709,"EPHEMERIS_TYPE":0,"CLASSIFICATION_TYPE":"U","NORAD_CAT_ID":43689,"ELEMENT_SET_NO":999,"REV_AT_EPOCH":38015,"BSTAR":7.9643386e-5,"MEAN_MOTION_DOT":1.31e-6,"MEAN_MOTION_DDOT":0},{"OBJECT_NAME":"GEO-KOMPSAT-2A","OBJECT_ID":"2018-100A","EPOCH":"2026-03-04T06:21:38.470176","MEAN_MOTION":1.00267019,"ECCENTRICITY":0.00017508,"INCLINATION":0.0084,"RA_OF_ASC_NODE":82.1864,"ARG_OF_PERICENTER":326.5345,"MEAN_ANOMALY":336.9688,"EPHEMERIS_TYPE":0,"CLASSIFICATION_TYPE":"U","NORAD_CAT_ID":43823,"ELEMENT_SET_NO":999,"REV_AT_EPOCH":2657,"BSTAR":0,"MEAN_MOTION_DOT":0,"MEAN_MOTION_DDOT":0},{"OBJECT_NAME":"METEOR-M2 2","OBJECT_ID":"2019-038A","EPOCH":"2026-03-05T21:52:28.124832","MEAN_MOTION":14.24332493,"ECCENTRICITY":0.00010811,"INCLINATION":98.908,"RA_OF_ASC_NODE":50.7104,"ARG_OF_PERICENTER":11.0652,"MEAN_ANOMALY":349.055,"EPHEMERIS_TYPE":0,"CLASSIFICATION_TYPE":"U","NORAD_CAT_ID":44387,"ELEMENT_SET_NO":999,"REV_AT_EPOCH":34659,"BSTAR":8.3379704e-5,"MEAN_MOTION_DOT":1.47e-6,"MEAN_MOTION_DDOT":0},{"OBJECT_NAME":"ARKTIKA-M 1","OBJECT_ID":"2021-016A","EPOCH":"2026-03-02T19:44:56.440608","MEAN_MOTION":2.00620868,"ECCENTRICITY":0.72428147,"INCLINATION":63.2036,"RA_OF_ASC_NODE":72.8571,"ARG_OF_PERICENTER":269.4536,"MEAN_ANOMALY":15.2019,"EPHEMERIS_TYPE":0,"CLASSIFICATION_TYPE":"U","NORAD_CAT_ID":47719,"ELEMENT_SET_NO":999,"REV_AT_EPOCH":3665,"BSTAR":0,"MEAN_MOTION_DOT":-1.08e-6,"MEAN_MOTION_DDOT":0},{"OBJECT_NAME":"FENGYUN 3E","OBJECT_ID":"2021-062A","EPOCH":"2026-03-05T23:12:52.871040","MEAN_MOTION":14.19893205,"ECCENTRICITY":0.00023964,"INCLINATION":98.7509,"RA_OF_ASC_NODE":69.5219,"ARG_OF_PERICENTER":49.3583,"MEAN_ANOMALY":310.7801,"EPHEMERIS_TYPE":0,"CLASSIFICATION_TYPE":"U","NORAD_CAT_ID":49008,"ELEMENT_SET_NO":999,"REV_AT_EPOCH":24193,"BSTAR":-3.1195658e-5,"MEAN_MOTION_DOT":-1.1e-6,"MEAN_MOTION_DDOT":0},{"OBJECT_NAME":"GOES 18","OBJECT_ID":"2022-021A","EPOCH":"2026-03-05T19:38:22.378848","MEAN_MOTION":1.00272735,"ECCENTRICITY":6.917e-5,"INCLINATION":0.0333,"RA_OF_ASC_NODE":75.5863,"ARG_OF_PERICENTER":327.0556,"MEAN_ANOMALY":278.4855,"EPHEMERIS_TYPE":0,"CLASSIFICATION_TYPE":"U","NORAD_CAT_ID":51850,"ELEMENT_SET_NO":999,"REV_AT_EPOCH":555,"BSTAR":0,"MEAN_MOTION_DOT":9.0e-7,"MEAN_MOTION_DDOT":0},{"OBJECT_NAME":"NOAA 21 (JPSS-2)","OBJECT_ID":"2022-150A","EPOCH":"2026-03-05T21:59:00.071520","MEAN_MOTION":14.19550893,"ECCENTRICITY":0.00025826,"INCLINATION":98.7551,"RA_OF_ASC_NODE":5.2252,"ARG_OF_PERICENTER":113.2952,"MEAN_ANOMALY":246.8496,"EPHEMERIS_TYPE":0,"CLASSIFICATION_TYPE":"U","NORAD_CAT_ID":54234,"ELEMENT_SET_NO":999,"REV_AT_EPOCH":17189,"BSTAR":7.3277255e-5,"MEAN_MOTION_DOT":1.11e-6,"MEAN_MOTION_DDOT":0},{"OBJECT_NAME":"METEOSAT-12 (MTG-I1)","OBJECT_ID":"2022-170C","EPOCH":"2026-03-05T22:33:13.790016","MEAN_MOTION":1.00269816,"ECCENTRICITY":0.00020601,"INCLINATION":0.7026,"RA_OF_ASC_NODE":21.6037,"ARG_OF_PERICENTER":287.0756,"MEAN_ANOMALY":192.9853,"EPHEMERIS_TYPE":0,"CLASSIFICATION_TYPE":"U","NORAD_CAT_ID":54743,"ELEMENT_SET_NO":999,"REV_AT_EPOCH":1194,"BSTAR":0,"MEAN_MOTION_DOT":-1.4e-7,"MEAN_MOTION_DDOT":0},{"OBJECT_NAME":"TIANMU-1 03","OBJECT_ID":"2023-039A","EPOCH":"2026-03-05T23:47:15.224352","MEAN_MOTION":15.44030912,"ECCENTRICITY":0.000403,"INCLINATION":97.5174,"RA_OF_ASC_NODE":235.1851,"ARG_OF_PERICENTER":111.9863,"MEAN_ANOMALY":248.1813,"EPHEMERIS_TYPE":0,"CLASSIFICATION_TYPE":"U","NORAD_CAT_ID":55973,"ELEMENT_SET_NO":999,"REV_AT_EPOCH":16489,"BSTAR":0.00040033234,"MEAN_MOTION_DOT":0.00018198,"MEAN_MOTION_DDOT":0},{"OBJECT_NAME":"TIANMU-1 04","OBJECT_ID":"2023-039B","EPOCH":"2026-03-05T22:49:08.802912","MEAN_MOTION":15.44437326,"ECCENTRICITY":0.00046612,"INCLINATION":97.5106,"RA_OF_ASC_NODE":234.3045,"ARG_OF_PERICENTER":108.4435,"MEAN_ANOMALY":251.732,"EPHEMERIS_TYPE":0,"CLASSIFICATION_TYPE":"U","NORAD_CAT_ID":55974,"ELEMENT_SET_NO":999,"REV_AT_EPOCH":16489,"BSTAR":0.00041375699,"MEAN_MOTION_DOT":0.00019076,"MEAN_MOTION_DDOT":0},{"OBJECT_NAME":"TIANMU-1 05","OBJECT_ID":"2023-039C","EPOCH":"2026-03-05T21:40:00.501312","MEAN_MOTION":15.43969753,"ECCENTRICITY":0.00037755,"INCLINATION":97.5152,"RA_OF_ASC_NODE":234.7465,"ARG_OF_PERICENTER":129.435,"MEAN_ANOMALY":230.7232,"EPHEMERIS_TYPE":0,"CLASSIFICATION_TYPE":"U","NORAD_CAT_ID":55975,"ELEMENT_SET_NO":999,"REV_AT_EPOCH":16486,"BSTAR":0.00047064091,"MEAN_MOTION_DOT":0.00021374,"MEAN_MOTION_DDOT":0},{"OBJECT_NAME":"TIANMU-1 06","OBJECT_ID":"2023-039D","EPOCH":"2026-03-05T22:48:58.057344","MEAN_MOTION":15.44468674,"ECCENTRICITY":0.00040946,"INCLINATION":97.5163,"RA_OF_ASC_NODE":235.3328,"ARG_OF_PERICENTER":125.0916,"MEAN_ANOMALY":235.0717,"EPHEMERIS_TYPE":0,"CLASSIFICATION_TYPE":"U","NORAD_CAT_ID":55976,"ELEMENT_SET_NO":999,"REV_AT_EPOCH":16489,"BSTAR":0.00049906909,"MEAN_MOTION_DOT":0.00023062,"MEAN_MOTION_DDOT":0},{"OBJECT_NAME":"FENGYUN 3G","OBJECT_ID":"2023-055A","EPOCH":"2026-03-05T18:38:21.930144","MEAN_MOTION":15.54329458,"ECCENTRICITY":0.00107346,"INCLINATION":49.9932,"RA_OF_ASC_NODE":159.2025,"ARG_OF_PERICENTER":355.4969,"MEAN_ANOMALY":4.5901,"EPHEMERIS_TYPE":0,"CLASSIFICATION_TYPE":"U","NORAD_CAT_ID":56232,"ELEMENT_SET_NO":999,"REV_AT_EPOCH":16393,"BSTAR":0.00052366599,"MEAN_MOTION_DOT":0.00034725,"MEAN_MOTION_DDOT":0},{"OBJECT_NAME":"METEOR-M2 3","OBJECT_ID":"2023-091A","EPOCH":"2026-03-05T22:52:31.518048","MEAN_MOTION":14.24037214,"ECCENTRICITY":0.00050775,"INCLINATION":98.6221,"RA_OF_ASC_NODE":121.9831,"ARG_OF_PERICENTER":107.8559,"MEAN_ANOMALY":252.3174,"EPHEMERIS_TYPE":0,"CLASSIFICATION_TYPE":"U","NORAD_CAT_ID":57166,"ELEMENT_SET_NO":999,"REV_AT_EPOCH":13982,"BSTAR":3.2643383e-5,"MEAN_MOTION_DOT":3.2e-7,"MEAN_MOTION_DDOT":0},{"OBJECT_NAME":"TIANMU-1 07","OBJECT_ID":"2023-101A","EPOCH":"2026-03-05T22:05:00.551328","MEAN_MOTION":15.2910858,"ECCENTRICITY":0.00045663,"INCLINATION":97.2728,"RA_OF_ASC_NODE":117.953,"ARG_OF_PERICENTER":144.1975,"MEAN_ANOMALY":215.9572,"EPHEMERIS_TYPE":0,"CLASSIFICATION_TYPE":"U","NORAD_CAT_ID":57399,"ELEMENT_SET_NO":999,"REV_AT_EPOCH":14586,"BSTAR":0.00031899586,"MEAN_MOTION_DOT":8.944e-5,"MEAN_MOTION_DDOT":0},{"OBJECT_NAME":"TIANMU-1 08","OBJECT_ID":"2023-101B","EPOCH":"2026-03-05T15:04:38.206272","MEAN_MOTION":15.29264476,"ECCENTRICITY":0.00065084,"INCLINATION":97.2726,"RA_OF_ASC_NODE":117.4462,"ARG_OF_PERICENTER":136.1408,"MEAN_ANOMALY":224.035,"EPHEMERIS_TYPE":0,"CLASSIFICATION_TYPE":"U","NORAD_CAT_ID":57400,"ELEMENT_SET_NO":999,"REV_AT_EPOCH":14581,"BSTAR":1.7108763e-5,"MEAN_MOTION_DOT":4.13e-6,"MEAN_MOTION_DDOT":0},{"OBJECT_NAME":"TIANMU-1 09","OBJECT_ID":"2023-101C","EPOCH":"2026-03-05T22:29:05.274240","MEAN_MOTION":15.29005798,"ECCENTRICITY":0.00046256,"INCLINATION":97.2674,"RA_OF_ASC_NODE":117.2264,"ARG_OF_PERICENTER":150.4654,"MEAN_ANOMALY":209.6849,"EPHEMERIS_TYPE":0,"CLASSIFICATION_TYPE":"U","NORAD_CAT_ID":57401,"ELEMENT_SET_NO":999,"REV_AT_EPOCH":14586,"BSTAR":0.00030534571,"MEAN_MOTION_DOT":8.531e-5,"MEAN_MOTION_DDOT":0}]
