METOP-C                 
1 43689U 18087A   26064.87961337  .00000131  00000+0  79643-4 0  9993
2 43689  98.6773 126.3171 0002182 105.2710 254.8709 14.21495415380150
GEO-KOMPSAT-2A          
1 43823U 18100A   26063.26502859  .00000000  00000+0  00000+0 0  9992
2 43823   0.0084  82.1864 0001750 326.5345 336.9688  1.00267019 26573
METEOR-M2 2             
1 44387U 19038A   26064.91143663  .00000147  00000+0  83380-4 0  9995
2 44387  98.9080  50.7104 0001081  11.0652 349.0550 14.24332493346592
ARKTIKA-M 1             
1 47719U 21016A   26061.82287547 -.00000108  00000+0  00000+0 0  9994
2 47719  63.2036  72.8571 7242814 269.4536  15.2019  2.00620868 36653
FENGYUN 3E              
1 49008U 21062A   26064.96727860 -.00000110  00000+0 -31196-4 0  9992
2 49008  98.7509  69.5219 0002396  49.3583 310.7801 14.19893205241936
GOES 18                 
1 51850U 22021A   26064.81831457  .00000090  00000+0  00000+0 0  9998
2 51850   0.0333  75.5863 0000691 327.0556 278.4855  1.00272735  5559
NOAA 21 (JPSS-2)        
1 54234U 22150A   26064.91597305  .00000111  00000+0  73277-4 0  9997
2 54234  98.7551   5.2252 0002582 113.2952 246.8496 14.19550893171891
METEOSAT-12 (MTG-I1)    
1 54743U 22170C   26064.93974294 -.00000014  00000+0  00000+0 0  9994
2 54743   0.7026  21.6037 0002060 287.0756 192.9853  1.00269816 11947
TIANMU-1 03             
1 55973U 23039A   26064.99114843  .00018198  00000+0  40033-3 0  9992
2 55973  97.5174 235.1851 0004030 111.9863 248.1813 15.44030912164899
TIANMU-1 04             
1 55974U 23039B   26064.95079633  .00019076  00000+0  41376-3 0  9993
2 55974  97.5106 234.3045 0004661 108.4435 251.7320 15.44437326164890
TIANMU-1 05             
1 55975U 23039C   26064.90278358  .00021374  00000+0  47064-3 0  9998
2 55975  97.5152 234.7465 0003775 129.4350 230.7232 15.43969753164865
TIANMU-1 06             
1 55976U 23039D   26064.95067196  .00023062  00000+0  49907-3 0  9994
2 55976  97.5163 235.3328 0004094 125.0916 235.0717 15.44468674164894
FENGYUN 3G              
1 56232U 23055A   26064.77664271  .00034725  00000+0  52367-3 0  9997
2 56232  49.9932 159.2025 0010734 355.4969   4.5901 15.54329458163933
METEOR-M2 3             
1 57166U 23091A   26064.95314257  .00000032  00000+0  32643-4 0  9990
2 57166  98.6221 121.9831 0005077 107.8559 252.3174 14.24037214139829
TIANMU-1 07             
1 57399U 23101A   26064.92014527  .00008944  00000+0  31900-3 0  9998
2 57399  97.2728 117.9530 0004566 144.1975 215.9572 15.29108580145862
TIANMU-1 08             
1 57400U 23101B   26064.62821998  .00000413  00000+0  17109-4 0  9995
2 57400  97.2726 117.4462 0006508 136.1408 224.0350 15.29264476145819
TIANMU-1 09             
1 57401U 23101C   26064.93686660  .00008531  00000+0  30535-3 0  9991
2 57401  97.2674 117.2264 0004625 150.4654 209.6849 15.29005798145867
